[{"OBJECT_NAME":"CENTISPACE-1 OBJECT E","OBJECT_ID":"2026-060E","EPOCH":"2026-04-11T02:03:15.753600","MEAN_MOTION":14.74672379,"ECCENTRICITY":0.00124563,"INCLINATION":54.9827,"RA_OF_ASC_NODE":309.4329,"ARG_OF_PERICENTER":351.0179,"MEAN_ANOMALY":9.0595,"EPHEMERIS_TYPE":0,"CLASSIFICATION_TYPE":"U","NORAD_CAT_ID":68354,"ELEMENT_SET_NO":999,"REV_AT_EPOCH":287,"BSTAR":2.5481164e-5,"MEAN_MOTION_DOT":-3.8e-7,"MEAN_MOTION_DDOT":0},{"OBJECT_NAME":"CENTISPACE-1 OBJECT F","OBJECT_ID":"2026-060F","EPOCH":"2026-04-11T05:18:28.796832","MEAN_MOTION":14.74528305,"ECCENTRICITY":0.00130254,"INCLINATION":54.9727,"RA_OF_ASC_NODE":308.8691,"ARG_OF_PERICENTER":342.7631,"MEAN_ANOMALY":17.2925,"EPHEMERIS_TYPE":0,"CLASSIFICATION_TYPE":"U","NORAD_CAT_ID":68355,"ELEMENT_SET_NO":999,"REV_AT_EPOCH":289,"BSTAR":2.1861571e-5,"MEAN_MOTION_DOT":-6.2e-7,"MEAN_MOTION_DDOT":0},{"OBJECT_NAME":"CENTISPACE-1 OBJECT G","OBJECT_ID":"2026-060G","EPOCH":"2026-04-10T09:43:47.004096","MEAN_MOTION":14.75091693,"ECCENTRICITY":0.00140543,"INCLINATION":54.9857,"RA_OF_ASC_NODE":312.204,"ARG_OF_PERICENTER":349.8048,"MEAN_ANOMALY":10.2665,"EPHEMERIS_TYPE":0,"CLASSIFICATION_TYPE":"U","NORAD_CAT_ID":68356,"ELEMENT_SET_NO":999,"REV_AT_EPOCH":277,"BSTAR":2.8436894e-5,"MEAN_MOTION_DOT":-1.7e-7,"MEAN_MOTION_DDOT":0},{"OBJECT_NAME":"CENTISPACE-1 OBJECT H","OBJECT_ID":"2026-060H","EPOCH":"2026-04-10T03:13:10.570368","MEAN_MOTION":14.74683357,"ECCENTRICITY":0.0012979,"INCLINATION":54.9874,"RA_OF_ASC_NODE":313.3051,"ARG_OF_PERICENTER":355.4603,"MEAN_ANOMALY":4.6277,"EPHEMERIS_TYPE":0,"CLASSIFICATION_TYPE":"U","NORAD_CAT_ID":68357,"ELEMENT_SET_NO":999,"REV_AT_EPOCH":273,"BSTAR":2.8091e-5,"MEAN_MOTION_DOT":-2.0e-7,"MEAN_MOTION_DDOT":0},{"OBJECT_NAME":"CENTISPACE-1 OBJECT J","OBJECT_ID":"2026-060J","EPOCH":"2026-04-11T06:52:24.596256","MEAN_MOTION":14.7448534,"ECCENTRICITY":0.00125911,"INCLINATION":54.9812,"RA_OF_ASC_NODE":308.5984,"ARG_OF_PERICENTER":353.9447,"MEAN_ANOMALY":6.1398,"EPHEMERIS_TYPE":0,"CLASSIFICATION_TYPE":"U","NORAD_CAT_ID":68358,"ELEMENT_SET_NO":999,"REV_AT_EPOCH":290,"BSTAR":2.2101997e-5,"MEAN_MOTION_DOT":-6.1e-7,"MEAN_MOTION_DDOT":0},{"OBJECT_NAME":"CENTISPACE-1 OBJECT K","OBJECT_ID":"2026-060K","EPOCH":"2026-04-04T15:27:21.758112","MEAN_MOTION":14.75283234,"ECCENTRICITY":0.0014769,"INCLINATION":54.98,"RA_OF_ASC_NODE":335.6935,"ARG_OF_PERICENTER":336.0624,"MEAN_ANOMALY":23.9687,"EPHEMERIS_TYPE":0,"CLASSIFICATION_TYPE":"U","NORAD_CAT_ID":68359,"ELEMENT_SET_NO":999,"REV_AT_EPOCH":192,"BSTAR":4.3130657e-5,"MEAN_MOTION_DOT":8.4e-7,"MEAN_MOTION_DDOT":0},{"OBJECT_NAME":"RASSVET-3 1","OBJECT_ID":"2026-061A","EPOCH":"2026-04-11T05:41:39.028992","MEAN_MOTION":15.85926272,"ECCENTRICITY":0.00224727,"INCLINATION":82.2949,"RA_OF_ASC_NODE":87.7341,"ARG_OF_PERICENTER":8.5968,"MEAN_ANOMALY":351.5682,"EPHEMERIS_TYPE":0,"CLASSIFICATION_TYPE":"U","NORAD_CAT_ID":68360,"ELEMENT_SET_NO":999,"REV_AT_EPOCH":294,"BSTAR":0.00029617555,"MEAN_MOTION_DOT":0.0007388,"MEAN_MOTION_DDOT":7.05697e-7},{"OBJECT_NAME":"RASSVET-3 2","OBJECT_ID":"2026-061B","EPOCH":"2026-04-11T05:38:55.397760","MEAN_MOTION":15.90207023,"ECCENTRICITY":0.0024002,"INCLINATION":82.2971,"RA_OF_ASC_NODE":87.7343,"ARG_OF_PERICENTER":5.8304,"MEAN_ANOMALY":354.3242,"EPHEMERIS_TYPE":0,"CLASSIFICATION_TYPE":"U","NORAD_CAT_ID":68361,"ELEMENT_SET_NO":999,"REV_AT_EPOCH":294,"BSTAR":0.00031613964,"MEAN_MOTION_DOT":0.00097784,"MEAN_MOTION_DDOT":2.224287e-6},{"OBJECT_NAME":"RASSVET-3 3","OBJECT_ID":"2026-061C","EPOCH":"2026-04-11T05:38:40.383168","MEAN_MOTION":15.90216215,"ECCENTRICITY":0.0023763,"INCLINATION":82.2968,"RA_OF_ASC_NODE":87.7339,"ARG_OF_PERICENTER":5.6744,"MEAN_ANOMALY":354.4792,"EPHEMERIS_TYPE":0,"CLASSIFICATION_TYPE":"U","NORAD_CAT_ID":68362,"ELEMENT_SET_NO":999,"REV_AT_EPOCH":294,"BSTAR":0.00031584176,"MEAN_MOTION_DOT":0.00097688,"MEAN_MOTION_DDOT":2.218116e-6},{"OBJECT_NAME":"RASSVET-3 4","OBJECT_ID":"2026-061D","EPOCH":"2026-04-11T05:38:37.888800","MEAN_MOTION":15.90031461,"ECCENTRICITY":0.00241053,"INCLINATION":82.2973,"RA_OF_ASC_NODE":87.7341,"ARG_OF_PERICENTER":5.5284,"MEAN_ANOMALY":354.6249,"EPHEMERIS_TYPE":0,"CLASSIFICATION_TYPE":"U","NORAD_CAT_ID":68363,"ELEMENT_SET_NO":999,"REV_AT_EPOCH":294,"BSTAR":0.00023595771,"MEAN_MOTION_DOT":0.00072441,"MEAN_MOTION_DDOT":7.07345e-7},{"OBJECT_NAME":"RASSVET-3 5","OBJECT_ID":"2026-061E","EPOCH":"2026-04-11T05:38:12.354144","MEAN_MOTION":15.90164447,"ECCENTRICITY":0.00239231,"INCLINATION":82.2971,"RA_OF_ASC_NODE":87.7332,"ARG_OF_PERICENTER":5.5743,"MEAN_ANOMALY":354.579,"EPHEMERIS_TYPE":0,"CLASSIFICATION_TYPE":"U","NORAD_CAT_ID":68364,"ELEMENT_SET_NO":999,"REV_AT_EPOCH":294,"BSTAR":0.00031338795,"MEAN_MOTION_DOT":0.0009671,"MEAN_MOTION_DDOT":2.149302e-6},{"OBJECT_NAME":"RASSVET-3 6","OBJECT_ID":"2026-061F","EPOCH":"2026-04-11T05:36:30.955968","MEAN_MOTION":15.90313471,"ECCENTRICITY":0.00237022,"INCLINATION":82.2972,"RA_OF_ASC_NODE":87.7315,"ARG_OF_PERICENTER":5.8354,"MEAN_ANOMALY":354.3189,"EPHEMERIS_TYPE":0,"CLASSIFICATION_TYPE":"U","NORAD_CAT_ID":68365,"ELEMENT_SET_NO":999,"REV_AT_EPOCH":294,"BSTAR":0.00026529477,"MEAN_MOTION_DOT":0.00082508,"MEAN_MOTION_DDOT":1.258983e-6},{"OBJECT_NAME":"RASSVET-3 7","OBJECT_ID":"2026-061G","EPOCH":"2026-04-11T05:37:40.271232","MEAN_MOTION":15.90208008,"ECCENTRICITY":0.00237061,"INCLINATION":82.2971,"RA_OF_ASC_NODE":87.7328,"ARG_OF_PERICENTER":5.5702,"MEAN_ANOMALY":354.5828,"EPHEMERIS_TYPE":0,"CLASSIFICATION_TYPE":"U","NORAD_CAT_ID":68366,"ELEMENT_SET_NO":999,"REV_AT_EPOCH":294,"BSTAR":0.00030806536,"MEAN_MOTION_DOT":0.0009524,"MEAN_MOTION_DDOT":2.051522e-6},{"OBJECT_NAME":"RASSVET-3 8","OBJECT_ID":"2026-061H","EPOCH":"2026-04-11T05:37:55.640064","MEAN_MOTION":15.90175473,"ECCENTRICITY":0.00237314,"INCLINATION":82.2971,"RA_OF_ASC_NODE":87.7328,"ARG_OF_PERICENTER":5.4427,"MEAN_ANOMALY":354.7098,"EPHEMERIS_TYPE":0,"CLASSIFICATION_TYPE":"U","NORAD_CAT_ID":68367,"ELEMENT_SET_NO":999,"REV_AT_EPOCH":294,"BSTAR":0.00030487073,"MEAN_MOTION_DOT":0.00094106,"MEAN_MOTION_DDOT":1.974881e-6},{"OBJECT_NAME":"RASSVET-3 9","OBJECT_ID":"2026-061J","EPOCH":"2026-04-11T05:31:48.595584","MEAN_MOTION":15.90684793,"ECCENTRICITY":0.00231595,"INCLINATION":82.2958,"RA_OF_ASC_NODE":87.7249,"ARG_OF_PERICENTER":6.9477,"MEAN_ANOMALY":353.2111,"EPHEMERIS_TYPE":0,"CLASSIFICATION_TYPE":"U","NORAD_CAT_ID":68368,"ELEMENT_SET_NO":999,"REV_AT_EPOCH":294,"BSTAR":0.00030054754,"MEAN_MOTION_DOT":0.00095101,"MEAN_MOTION_DDOT":2.05823e-6},{"OBJECT_NAME":"RASSVET-3 10","OBJECT_ID":"2026-061K","EPOCH":"2026-04-11T05:37:14.009088","MEAN_MOTION":15.90120144,"ECCENTRICITY":0.00237387,"INCLINATION":82.2973,"RA_OF_ASC_NODE":87.7324,"ARG_OF_PERICENTER":5.5486,"MEAN_ANOMALY":354.6043,"EPHEMERIS_TYPE":0,"CLASSIFICATION_TYPE":"U","NORAD_CAT_ID":68369,"ELEMENT_SET_NO":999,"REV_AT_EPOCH":294,"BSTAR":0.00024759857,"MEAN_MOTION_DOT":0.00076281,"MEAN_MOTION_DDOT":9.08389e-7}]
