CENTISPACE-1 OBJECT E   
1 68354U 26060E   26101.08559900 -.00000038  00000+0  25481-4 0  9991
2 68354  54.9827 309.4329 0012456 351.0179   9.0595 14.74672379  2872
CENTISPACE-1 OBJECT F   
1 68355U 26060F   26101.22116663 -.00000062  00000+0  21862-4 0  9999
2 68355  54.9727 308.8691 0013025 342.7631  17.2925 14.74528305  2899
CENTISPACE-1 OBJECT G   
1 68356U 26060G   26100.40540514 -.00000017  00000+0  28437-4 0  9990
2 68356  54.9857 312.2040 0014054 349.8048  10.2665 14.75091693  2771
CENTISPACE-1 OBJECT H   
1 68357U 26060H   26100.13415012 -.00000020  00000+0  28091-4 0  9995
2 68357  54.9874 313.3051 0012979 355.4603   4.6277 14.74683357  2734
CENTISPACE-1 OBJECT J   
1 68358U 26060J   26101.28639579 -.00000061  00000+0  22102-4 0  9991
2 68358  54.9812 308.5984 0012591 353.9447   6.1398 14.74485340  2909
CENTISPACE-1 OBJECT K   
1 68359U 26060K   26094.64400183  .00000084  00000+0  43131-4 0  9999
2 68359  54.9800 335.6935 0014769 336.0624  23.9687 14.75283234  1920
RASSVET-3 1             
1 68360U 26061A   26101.23725728  .00073880  70570-6  29618-3 0  9994
2 68360  82.2949  87.7341 0022472   8.5968 351.5682 15.85926272  2944
RASSVET-3 2             
1 68361U 26061B   26101.23536340  .00097784  22243-5  31614-3 0  9996
2 68361  82.2971  87.7343 0024002   5.8304 354.3242 15.90207023  2942
RASSVET-3 3             
1 68362U 26061C   26101.23518962  .00097688  22181-5  31584-3 0  9997
2 68362  82.2968  87.7339 0023763   5.6744 354.4792 15.90216215  2947
RASSVET-3 4             
1 68363U 26061D   26101.23516075  .00072441  70734-6  23596-3 0  9993
2 68363  82.2973  87.7341 0024105   5.5284 354.6249 15.90031461  2943
RASSVET-3 5             
1 68364U 26061E   26101.23486521  .00096710  21493-5  31339-3 0  9992
2 68364  82.2971  87.7332 0023923   5.5743 354.5790 15.90164447  2940
RASSVET-3 6             
1 68365U 26061F   26101.23369162  .00082508  12590-5  26529-3 0  9997
2 68365  82.2972  87.7315 0023702   5.8354 354.3189 15.90313471  2942
RASSVET-3 7             
1 68366U 26061G   26101.23449388  .00095240  20515-5  30807-3 0  9994
2 68366  82.2971  87.7328 0023706   5.5702 354.5828 15.90208008  2945
RASSVET-3 8             
1 68367U 26061H   26101.23467176  .00094106  19749-5  30487-3 0  9991
2 68367  82.2971  87.7328 0023731   5.4427 354.7098 15.90175473  2947
RASSVET-3 9             
1 68368U 26061J   26101.23042356  .00095101  20582-5  30055-3 0  9995
2 68368  82.2958  87.7249 0023159   6.9477 353.2111 15.90684793  2940
RASSVET-3 10            
1 68369U 26061K   26101.23418992  .00076281  90839-6  24760-3 0  9996
2 68369  82.2973  87.7324 0023738   5.5486 354.6043 15.90120144  2944
